STARLINK-2144           
1 47734U 21017N   25042.62631082  .00017391  00000+0  11825-2 0  9996
2 47734  53.0544 167.1714 0001366  85.3465 274.7680 15.06432479218806
STARLINK-2146           
1 47735U 21017P   25042.50977072  .00012710  00000+0  86976-3 0  9996
2 47735  53.0545  92.8603 0001525  96.6593 263.4570 15.06436965219812
STARLINK-2147           
1 47736U 21017Q   25042.59407741 -.00002007  00000+0 -11586-3 0  9992
2 47736  53.0556 157.3145 0001380  95.8585 264.2562 15.06403088218295
STARLINK-2150           
1 47739U 21017T   25042.58991036  .00003815  00000+0  27470-3 0  9994
2 47739  53.0537 182.3311 0000906  79.0676 281.0415 15.06416994218629
STARLINK-2156           
1 47742U 21017W   25042.59776239 -.00002553  00000+0 -15255-3 0  9993
2 47742  53.0571 157.3008 0001601  96.0313 264.0858 15.06402950218973
STARLINK-2159           
1 47745U 21017Z   25042.63001327 -.00001207  00000+0 -62168-4 0  9991
2 47745  53.0538 167.1531 0001385  83.3449 276.7697 15.06395840218786
STARLINK-2160           
1 47746U 21017AA  25042.75533485  .00006577  00000+0  45974-3 0  9998
2 47746  53.0531 166.5911 0001329  67.5896 292.5234 15.06421649218176
STARLINK-2161           
1 47747U 21017AB  25042.75255243  .00019551  00000+0  13262-2 0  9992
2 47747  53.0540 156.6023 0001937  85.5586 274.5624 15.06444634218310
STARLINK-2162           
1 47748U 21017AC  25042.67886566  .00000685  00000+0  64875-4 0  9998
2 47748  53.0553 156.9358 0001490  94.2704 265.8456 15.06394625218301
STARLINK-2163           
1 47749U 21017AD  25042.62724936 -.00003993  00000+0 -24925-3 0  9994
2 47749  53.0544 157.1678 0001538  89.0926 271.0239 15.06409068218925
STARLINK-2164           
1 47750U 21017AE  25042.60513434 -.00000992  00000+0 -47703-4 0  9999
2 47750  53.0549 157.2654 0001265  80.3439 279.7693 15.06387537218292
STARLINK-2169           
1 47752U 21017AG  25042.73554145 -.00002218  00000+0 -13011-3 0  9996
2 47752  53.0558 161.6840 0001805  89.2994 270.8201 15.06376537218244
STARLINK-2170           
1 47753U 21017AH  25042.71110768 -.00002279  00000+0 -13422-3 0  9997
2 47753  53.0545 166.7893 0001079  92.9458 267.1654 15.06385621218160
STARLINK-2171           
1 47754U 21017AJ  25042.54892573  .00000279  00000+0  37624-4 0  9997
2 47754  53.0536 167.5150 0001353  87.5061 272.6083 15.06389888218145
STARLINK-2175           
1 47757U 21017AM  25042.62952970  .01003759  53716-3  15324-2 0  9991
2 47757  53.0359 129.3808 0005686   7.8092 135.4078 16.03888091218686
STARLINK-2178           
1 47760U 21017AQ  25042.76176100  .00002245  00000+0  16951-3 0  9993
2 47760  53.0542 176.5599 0001444  89.8744 270.2410 15.06418696218036
STARLINK-2180           
1 47762U 21017AS  25042.68577353 -.00001192  00000+0 -61145-4 0  9999
2 47762  53.0544 181.9158 0001320  91.1045 269.0095 15.06391470217959
STARLINK-2184           
1 47766U 21017AW  25042.75481071  .00008419  00000+0  58258-3 0  9999
2 47766  53.0548 181.5826 0001611  89.0933 271.0241 15.06451737217960
STARLINK-2185           
1 47767U 21017AX  25042.58207792  .00005401  00000+0  38101-3 0  9990
2 47767  53.0555 167.3719 0001738 107.9076 252.2103 15.06418947218831
STARLINK-2193           
1 47770U 21017BA  25042.57332504  .00005768  00000+0  40557-3 0  9997
2 47770  53.0554 162.4097 0001667 110.2719 249.8449 15.06418599218873
STARLINK-2194           
1 47771U 21017BB  25042.58441465  .00007100  00000+0  49508-3 0  9993
2 47771  53.0539 162.3593 0001544  85.2856 274.8310 15.06396164218221
STARLINK-2195           
1 47772U 21017BC  25042.77281967  .00005772  00000+0  40580-3 0  9998
2 47772  53.0532 176.5099 0000603  56.4554 303.6493 15.06425478218036
STARLINK-2196           
1 47773U 21017BD  25042.63646189  .00010388  00000+0  71458-3 0  9992
2 47773  53.0528 177.1246 0001337 111.6083 248.5048 15.06434426218642
STARLINK-2197           
1 47774U 21017BE  25042.49882311  .04586007  12084-4  11003-2 0  9995
2 47774  53.0367 141.0676 0006643 333.7065 135.3865 16.28705555218361
STARLINK-2209           
1 47776U 21017BG  25042.60421432 -.00001401  00000+0 -75189-4 0  9998
2 47776  53.0529 167.2686 0001183  91.2935 268.8189 15.06394626218156
STARLINK-2210           
1 47777U 21017BH  25042.54156568  .00015728  00000+0  10715-2 0  9994
2 47777  53.0529 167.5480 0001194  89.1452 270.9674 15.06432098218142
STARLINK-2211           
1 47778U 21017BJ  25042.64107256 -.00003028  00000+0 -18453-3 0  9996
2 47778  53.0554 167.1059 0001611 102.1740 257.9430 15.06390066218805
STARLINK-2213           
1 47780U 21017BL  25042.60052446 -.00006919  00000+0 -44609-3 0  9999
2 47780  53.0528 167.2846 0001558  92.9288 267.1879 15.06396632218835
STARLINK-2257           
1 47787U 21018A   25042.71846154  .00002955  00000+0  21708-3 0  9995
2 47787  53.0525 206.7553 0001385  94.7235 265.3912 15.06414623217325
STARLINK-2314           
1 47788U 21018B   25042.59728517  .00002433  00000+0  18206-3 0  9994
2 47788  53.0532 182.2979 0001377  94.7004 265.4143 15.06420281218010
STARLINK-2315           
1 47789U 21018C   25042.71293020  .00001712  00000+0  13375-3 0  9996
2 47789  53.0552 186.7824 0001377  91.7398 268.3748 15.06416681217611
STARLINK-2319           
1 47790U 21018D   25042.68805014  .00003778  00000+0  27229-3 0  9993
2 47790  53.0548 176.8929 0001255  90.9394 269.1739 15.06416226217755
STARLINK-2322           
1 47791U 21018E   25042.70741067  .00000656  00000+0  62932-4 0  9997
2 47791  53.0541 206.8058 0001212  92.4902 267.6225 15.06403826217329
STARLINK-2334           
1 47792U 21018F   25042.78666058  .00004611  00000+0  32799-3 0  9994
2 47792  53.0526 186.4507 0001409  86.2991 273.8159 15.06428358217616
STARLINK-2338           
1 47793U 21018G   25042.60236294 -.00000889  00000+0 -40796-4 0  9993
2 47793  53.0526 187.2756 0001982  13.9130 346.1913 15.06406740217927
STARLINK-2373           
1 47796U 21018K   25042.80878580  .00000516  00000+0  53554-4 0  9999
2 47796  53.0534 186.3531 0001202  90.8024 269.3102 15.06405524217612
STARLINK-2377           
1 47797U 21018L   25042.77880491  .00001487  00000+0  11864-3 0  9995
2 47797  53.0542 211.4818 0001348  68.8727 291.2406 15.06425981217267
STARLINK-2379           
1 47798U 21018M   25042.68714701 -.00002530  00000+0 -15105-3 0  9990
2 47798  53.0550 186.8957 0001245  91.9545 268.1587 15.06387154217595
STARLINK-2380           
1 47799U 21018N   25042.68344357  .00000824  00000+0  74162-4 0  9998
2 47799  53.0545 186.9164 0001297  89.8658 270.2480 15.06412860217598
STARLINK-2381           
1 47800U 21018P   25042.83825348  .00001162  00000+0  96861-4 0  9998
2 47800  53.0548 186.2165 0001431  96.8080 263.3072 15.06410607217637
STARLINK-2383           
1 47802U 21018R   25042.78619712  .00003048  00000+0  22338-3 0  9992
2 47802  53.0546 211.4525 0001471  99.1771 260.9384 15.06407980217263
STARLINK-2384           
1 47803U 21018S   25042.71665334  .00002610  00000+0  19409-3 0  9996
2 47803  53.0538 186.7660 0001436  95.9554 264.1599 15.06392262217601
STARLINK-2385           
1 47804U 21018T   25042.59867623 -.00000166  00000+0  77482-5 0  9990
2 47804  53.0520 187.2919 0001387  74.5675 285.5467 15.06408307217922
STARLINK-2386           
1 47805U 21018U   25042.56552673  .00000469  00000+0  50393-4 0  9990
2 47805  53.0544 187.6834 0001270  90.9294 269.1841 15.06406867217922
STARLINK-2387           
1 47806U 21018V   25042.83504848  .00007655  00000+0  53193-3 0  9996
2 47806  53.0535 201.2431 0000936  71.6285 288.4805 15.06420531217415
STARLINK-2388           
1 47807U 21018W   25042.69173011 -.00001261  00000+0 -65705-4 0  9997
2 47807  53.0553 176.8773 0001468  92.0731 268.0426 15.06423724217731
STARLINK-2389           
1 47808U 21018X   25042.58808206  .00002606  00000+0  19373-3 0  9998
2 47808  53.0526 202.3438 0001362  90.7253 269.3892 15.06413739217772
STARLINK-2391           
1 47810U 21018Z   25042.75071606  .00002557  00000+0  19039-3 0  9990
2 47810  53.0523 216.6087 0001533  96.5202 263.5961 15.06417163217181
STARLINK-2393           
1 47812U 21018AB  25042.76178875 -.00001426  00000+0 -76855-4 0  9995
2 47812  53.0537 216.5613 0001258  95.2365 264.8767 15.06391629217188
STARLINK-2395           
1 47814U 21018AD  25042.83641537  .00001824  00000+0  14124-3 0  9995
2 47814  53.0544 206.2275 0000814  76.6787 283.4293 15.06408491217352
STARLINK-2396           
1 47815U 21018AE  25042.73551568  .00003188  00000+0  23274-3 0  9990
2 47815  53.0534 201.6782 0001305  84.2263 275.8875 15.06411162217400
STARLINK-2399           
1 47816U 21018AF  25042.61158275  .00003351  00000+0  24372-3 0  9998
2 47816  53.0545 207.2349 0001348  82.3692 277.7450 15.06408284217643
STARLINK-2400           
1 47817U 21018AG  25042.82906090  .00012638  00000+0  86500-3 0  9997
2 47817  53.0512 206.2577 0001130  75.3038 284.8076 15.06434087217345
STARLINK-2401           
1 47818U 21018AH  25042.50243469  .00001787  00000+0  13878-3 0  9998
2 47818  53.0550 213.1882 0001348  83.2321 276.8822 15.06410014217555
STARLINK-2402           
1 47819U 21018AJ  25042.43371881  .00003157  00000+0  23059-3 0  9996
2 47819  53.0547 208.0231 0001317  89.7180 270.3960 15.06420339217680
STARLINK-2403           
1 47820U 21018AK  25042.74703398  .00009658  00000+0  66592-3 0  9995
2 47820  53.0530 216.6275 0000828  97.4309 262.6775 15.06423370217194
STARLINK-2406           
1 47821U 21018AL  25042.59315949  .00007277  00000+0  50667-3 0  9991
2 47821  53.0523 207.3302 0001266  84.3323 275.7811 15.06416263217642
STARLINK-2407           
1 47822U 21018AM  25041.80619370  .00006568  00000+0  45917-3 0  9994
2 47822  53.0526 220.8423 0000854  97.2825 262.8261 15.06416546217057
STARLINK-2408           
1 47823U 21018AN  25042.75069807 -.00000126  00000+0  10456-4 0  9990
2 47823  53.0541 206.6000 0001320  91.6333 268.4807 15.06402315217337
